STARLINK-35725          
1 67565U 26016E   26047.83337963 -.00101500  00000+0 -68741-3 0  9992
2 67565  97.2835 107.2395 0001562  70.5511  40.8110 15.75200003  4680
STARLINK-36394          
1 67566U 26016F   26047.75199374  .00179797  00000+0  11778-2 0  9994
2 67566  97.2835 107.1458 0001726 110.6863 249.4587 15.75254447  3504
STARLINK-36352          
1 67567U 26016G   26047.79659623  .00215840  00000+0  10947-2 0  9994
2 67567  97.2837 107.2387 0001530  93.5460 266.5983 15.80920643  3519
STARLINK-36435          
1 67568U 26016H   26047.79434440  .00175134  00000+0  89327-3 0  9993
2 67568  97.2841 107.2417 0000316 335.4093  24.7160 15.80902821  3519
STARLINK-36575          
1 67569U 26016J   26047.79313524  .00252922  00000+0  12764-2 0  9994
2 67569  97.2830 107.2468 0001538  71.1619 288.9816 15.80933614  3515
STARLINK-36562          
1 67570U 26016K   26047.79222448  .00260345  00000+0  13124-2 0  9999
2 67570  97.2832 107.2474 0001567  73.2280 286.9160 15.80939189  3518
STARLINK-36578          
1 67571U 26016L   26047.81763516  .00125264  00000+0  82632-3 0  9990
2 67571  97.2832 107.2115 0001167  89.0372 271.1027 15.75249191  3513
STARLINK-36350          
1 67572U 26016M   26047.80987034  .00159232  00000+0  10451-2 0  9994
2 67572  97.2838 107.2209 0001452  89.5212 270.6220 15.75269030  3512
STARLINK-36588          
1 67573U 26016N   26047.74846563  .00165170  00000+0  10843-2 0  9992
2 67573  97.2831 107.1522 0001521  85.5497 274.5942 15.75247228  3509
STARLINK-36594          
1 67574U 26016P   26047.78751114  .00281951  00000+0  14171-2 0  9998
2 67574  97.2838 107.2523 0001051  68.7781 291.3599 15.80947477  3511
STARLINK-36400          
1 67575U 26016Q   26047.83337963 -.00124724  00000+0 -84616-3 0  9995
2 67575  97.2842 107.2853 0001361  86.3060 135.0244 15.75228401  4631
STARLINK-36591          
1 67576U 26016R   26047.78548073  .00284070  00000+0  14273-2 0  9996
2 67576  97.2842 107.2550 0001559  91.3839 268.7608 15.80949535  3513
