CCSDS_OMM_VERS = 2.0
CREATION_DATE  = 
ORIGINATOR     = 

OBJECT_NAME    = STARLINK-35725
OBJECT_ID      = 2026-016E
CENTER_NAME    = EARTH
REF_FRAME      = TEME
TIME_SYSTEM    = UTC
MEAN_ELEMENT_THEORY = SGP/SGP4

EPOCH          = 2026-02-16T20:00:04.000032
MEAN_MOTION    = 15.75200003
ECCENTRICITY   = .0001562
INCLINATION    = 97.2835
RA_OF_ASC_NODE = 107.2395
ARG_OF_PERICENTER = 70.5511
MEAN_ANOMALY   = 40.8110

EPHEMERIS_TYPE = 0
CLASSIFICATION_TYPE = U
NORAD_CAT_ID   = 67565
ELEMENT_SET_NO = 999
REV_AT_EPOCH   = 468
BSTAR          = -.68741E-3
MEAN_MOTION_DOT = -.1015E-2
MEAN_MOTION_DDOT = 0

CCSDS_OMM_VERS = 2.0
CREATION_DATE  = 
ORIGINATOR     = 

OBJECT_NAME    = STARLINK-36394
OBJECT_ID      = 2026-016F
CENTER_NAME    = EARTH
REF_FRAME      = TEME
TIME_SYSTEM    = UTC
MEAN_ELEMENT_THEORY = SGP/SGP4

EPOCH          = 2026-02-16T18:02:52.259136
MEAN_MOTION    = 15.75254447
ECCENTRICITY   = .0001726
INCLINATION    = 97.2835
RA_OF_ASC_NODE = 107.1458
ARG_OF_PERICENTER = 110.6863
MEAN_ANOMALY   = 249.4587

EPHEMERIS_TYPE = 0
CLASSIFICATION_TYPE = U
NORAD_CAT_ID   = 67566
ELEMENT_SET_NO = 999
REV_AT_EPOCH   = 350
BSTAR          = .11778E-2
MEAN_MOTION_DOT = .179797E-2
MEAN_MOTION_DDOT = 0

CCSDS_OMM_VERS = 2.0
CREATION_DATE  = 
ORIGINATOR     = 

OBJECT_NAME    = STARLINK-36352
OBJECT_ID      = 2026-016G
CENTER_NAME    = EARTH
REF_FRAME      = TEME
TIME_SYSTEM    = UTC
MEAN_ELEMENT_THEORY = SGP/SGP4

EPOCH          = 2026-02-16T19:07:05.914272
MEAN_MOTION    = 15.80920643
ECCENTRICITY   = .000153
INCLINATION    = 97.2837
RA_OF_ASC_NODE = 107.2387
ARG_OF_PERICENTER = 93.5460
MEAN_ANOMALY   = 266.5983

EPHEMERIS_TYPE = 0
CLASSIFICATION_TYPE = U
NORAD_CAT_ID   = 67567
ELEMENT_SET_NO = 999
REV_AT_EPOCH   = 351
BSTAR          = .10947E-2
MEAN_MOTION_DOT = .21584E-2
MEAN_MOTION_DDOT = 0

CCSDS_OMM_VERS = 2.0
CREATION_DATE  = 
ORIGINATOR     = 

OBJECT_NAME    = STARLINK-36435
OBJECT_ID      = 2026-016H
CENTER_NAME    = EARTH
REF_FRAME      = TEME
TIME_SYSTEM    = UTC
MEAN_ELEMENT_THEORY = SGP/SGP4

EPOCH          = 2026-02-16T19:03:51.356160
MEAN_MOTION    = 15.80902821
ECCENTRICITY   = .0000316
INCLINATION    = 97.2841
RA_OF_ASC_NODE = 107.2417
ARG_OF_PERICENTER = 335.4093
MEAN_ANOMALY   = 24.7160

EPHEMERIS_TYPE = 0
CLASSIFICATION_TYPE = U
NORAD_CAT_ID   = 67568
ELEMENT_SET_NO = 999
REV_AT_EPOCH   = 351
BSTAR          = .89327E-3
MEAN_MOTION_DOT = .175134E-2
MEAN_MOTION_DDOT = 0

CCSDS_OMM_VERS = 2.0
CREATION_DATE  = 
ORIGINATOR     = 

OBJECT_NAME    = STARLINK-36575
OBJECT_ID      = 2026-016J
CENTER_NAME    = EARTH
REF_FRAME      = TEME
TIME_SYSTEM    = UTC
MEAN_ELEMENT_THEORY = SGP/SGP4

EPOCH          = 2026-02-16T19:02:06.884736
MEAN_MOTION    = 15.80933614
ECCENTRICITY   = .0001538
INCLINATION    = 97.2830
RA_OF_ASC_NODE = 107.2468
ARG_OF_PERICENTER = 71.1619
MEAN_ANOMALY   = 288.9816

EPHEMERIS_TYPE = 0
CLASSIFICATION_TYPE = U
NORAD_CAT_ID   = 67569
ELEMENT_SET_NO = 999
REV_AT_EPOCH   = 351
BSTAR          = .12764E-2
MEAN_MOTION_DOT = .252922E-2
MEAN_MOTION_DDOT = 0

CCSDS_OMM_VERS = 2.0
CREATION_DATE  = 
ORIGINATOR     = 

OBJECT_NAME    = STARLINK-36562
OBJECT_ID      = 2026-016K
CENTER_NAME    = EARTH
REF_FRAME      = TEME
TIME_SYSTEM    = UTC
MEAN_ELEMENT_THEORY = SGP/SGP4

EPOCH          = 2026-02-16T19:00:48.195072
MEAN_MOTION    = 15.80939189
ECCENTRICITY   = .0001567
INCLINATION    = 97.2832
RA_OF_ASC_NODE = 107.2474
ARG_OF_PERICENTER = 73.2280
MEAN_ANOMALY   = 286.9160

EPHEMERIS_TYPE = 0
CLASSIFICATION_TYPE = U
NORAD_CAT_ID   = 67570
ELEMENT_SET_NO = 999
REV_AT_EPOCH   = 351
BSTAR          = .13124E-2
MEAN_MOTION_DOT = .260345E-2
MEAN_MOTION_DDOT = 0

CCSDS_OMM_VERS = 2.0
CREATION_DATE  = 
ORIGINATOR     = 

OBJECT_NAME    = STARLINK-36578
OBJECT_ID      = 2026-016L
CENTER_NAME    = EARTH
REF_FRAME      = TEME
TIME_SYSTEM    = UTC
MEAN_ELEMENT_THEORY = SGP/SGP4

EPOCH          = 2026-02-16T19:37:23.677824
MEAN_MOTION    = 15.75249191
ECCENTRICITY   = .0001167
INCLINATION    = 97.2832
RA_OF_ASC_NODE = 107.2115
ARG_OF_PERICENTER = 89.0372
MEAN_ANOMALY   = 271.1027

EPHEMERIS_TYPE = 0
CLASSIFICATION_TYPE = U
NORAD_CAT_ID   = 67571
ELEMENT_SET_NO = 999
REV_AT_EPOCH   = 351
BSTAR          = .82632E-3
MEAN_MOTION_DOT = .125264E-2
MEAN_MOTION_DDOT = 0

CCSDS_OMM_VERS = 2.0
CREATION_DATE  = 
ORIGINATOR     = 

OBJECT_NAME    = STARLINK-36350
OBJECT_ID      = 2026-016M
CENTER_NAME    = EARTH
REF_FRAME      = TEME
TIME_SYSTEM    = UTC
MEAN_ELEMENT_THEORY = SGP/SGP4

EPOCH          = 2026-02-16T19:26:12.797376
MEAN_MOTION    = 15.75269030
ECCENTRICITY   = .0001452
INCLINATION    = 97.2838
RA_OF_ASC_NODE = 107.2209
ARG_OF_PERICENTER = 89.5212
MEAN_ANOMALY   = 270.6220

EPHEMERIS_TYPE = 0
CLASSIFICATION_TYPE = U
NORAD_CAT_ID   = 67572
ELEMENT_SET_NO = 999
REV_AT_EPOCH   = 351
BSTAR          = .10451E-2
MEAN_MOTION_DOT = .159232E-2
MEAN_MOTION_DDOT = 0

CCSDS_OMM_VERS = 2.0
CREATION_DATE  = 
ORIGINATOR     = 

OBJECT_NAME    = STARLINK-36588
OBJECT_ID      = 2026-016N
CENTER_NAME    = EARTH
REF_FRAME      = TEME
TIME_SYSTEM    = UTC
MEAN_ELEMENT_THEORY = SGP/SGP4

EPOCH          = 2026-02-16T17:57:47.430432
MEAN_MOTION    = 15.75247228
ECCENTRICITY   = .0001521
INCLINATION    = 97.2831
RA_OF_ASC_NODE = 107.1522
ARG_OF_PERICENTER = 85.5497
MEAN_ANOMALY   = 274.5942

EPHEMERIS_TYPE = 0
CLASSIFICATION_TYPE = U
NORAD_CAT_ID   = 67573
ELEMENT_SET_NO = 999
REV_AT_EPOCH   = 350
BSTAR          = .10843E-2
MEAN_MOTION_DOT = .16517E-2
MEAN_MOTION_DDOT = 0

CCSDS_OMM_VERS = 2.0
CREATION_DATE  = 
ORIGINATOR     = 

OBJECT_NAME    = STARLINK-36594
OBJECT_ID      = 2026-016P
CENTER_NAME    = EARTH
REF_FRAME      = TEME
TIME_SYSTEM    = UTC
MEAN_ELEMENT_THEORY = SGP/SGP4

EPOCH          = 2026-02-16T18:54:00.962496
MEAN_MOTION    = 15.80947477
ECCENTRICITY   = .0001051
INCLINATION    = 97.2838
RA_OF_ASC_NODE = 107.2523
ARG_OF_PERICENTER = 68.7781
MEAN_ANOMALY   = 291.3599

EPHEMERIS_TYPE = 0
CLASSIFICATION_TYPE = U
NORAD_CAT_ID   = 67574
ELEMENT_SET_NO = 999
REV_AT_EPOCH   = 351
BSTAR          = .14171E-2
MEAN_MOTION_DOT = .281951E-2
MEAN_MOTION_DDOT = 0

CCSDS_OMM_VERS = 2.0
CREATION_DATE  = 
ORIGINATOR     = 

OBJECT_NAME    = STARLINK-36400
OBJECT_ID      = 2026-016Q
CENTER_NAME    = EARTH
REF_FRAME      = TEME
TIME_SYSTEM    = UTC
MEAN_ELEMENT_THEORY = SGP/SGP4

EPOCH          = 2026-02-16T20:00:04.000032
MEAN_MOTION    = 15.75228401
ECCENTRICITY   = .0001361
INCLINATION    = 97.2842
RA_OF_ASC_NODE = 107.2853
ARG_OF_PERICENTER = 86.3060
MEAN_ANOMALY   = 135.0244

EPHEMERIS_TYPE = 0
CLASSIFICATION_TYPE = U
NORAD_CAT_ID   = 67575
ELEMENT_SET_NO = 999
REV_AT_EPOCH   = 463
BSTAR          = -.84616E-3
MEAN_MOTION_DOT = -.124724E-2
MEAN_MOTION_DDOT = 0

CCSDS_OMM_VERS = 2.0
CREATION_DATE  = 
ORIGINATOR     = 

OBJECT_NAME    = STARLINK-36591
OBJECT_ID      = 2026-016R
CENTER_NAME    = EARTH
REF_FRAME      = TEME
TIME_SYSTEM    = UTC
MEAN_ELEMENT_THEORY = SGP/SGP4

EPOCH          = 2026-02-16T18:51:05.535072
MEAN_MOTION    = 15.80949535
ECCENTRICITY   = .0001559
INCLINATION    = 97.2842
RA_OF_ASC_NODE = 107.2550
ARG_OF_PERICENTER = 91.3839
MEAN_ANOMALY   = 268.7608

EPHEMERIS_TYPE = 0
CLASSIFICATION_TYPE = U
NORAD_CAT_ID   = 67576
ELEMENT_SET_NO = 999
REV_AT_EPOCH   = 351
BSTAR          = .14273E-2
MEAN_MOTION_DOT = .28407E-2
MEAN_MOTION_DDOT = 0

